IRIDIUM 136             
1 42962U 17061H   24037.47280561  .00000237  00000+0  77705-4 0  9998
2 42962  86.3970  25.3477 0002190  81.0308 279.1135 14.34216881331326
